{
  "type": "FeatureCollection",
  "features": [
    {
      "type": "Feature",
      "properties": {
        "norad_id": 66669,
        "name": "TRANSPORTER-15 D",
        "group": "last-30-days",
        "lat": -15.24749241882226,
        "lon": 70.05727711974225,
        "alt_km": 490.4699074358532,
        "timestamp": "2025-12-22T09:53:36.143361+00:00",
        "meta_object_name": "TRANSPORTER-15 D",
        "meta_object_id": "2025-276D",
        "meta_epoch": "2025-12-21T02:39:18.210816",
        "meta_mean_motion": 15.34134881,
        "meta_eccentricity": 0.00748198,
        "meta_inclination": 97.4314,
        "meta_ra_of_asc_node": 66.7079,
        "meta_arg_of_pericenter": 232.3102,
        "meta_mean_anomaly": 127.1341,
        "meta_ephemeris_type": 0,
        "meta_classification_type": "U",
        "meta_norad_cat_id": 66669,
        "meta_element_set_no": 999,
        "meta_rev_at_epoch": 339,
        "meta_bstar": 0.0027830351,
        "meta_mean_motion_dot": 0.00101698,
        "meta_mean_motion_ddot": 0,
        "tle_line1": "1 66669U 25276D   25355.11062744  .00101698  00000+0  27830-2 0  9996",
        "tle_line2": "2 66669  97.4314  66.7079 0074819 232.3102 127.1341 15.34134881  3392"
      },
      "geometry": {
        "type": "Point",
        "coordinates": [
          70.05727711974225,
          -15.24749241882226
        ]
      }
    },
    {
      "type": "Feature",
      "properties": {
        "norad_id": 66670,
        "name": "TRANSPORTER-15 E",
        "group": "last-30-days",
        "lat": -18.044172415703816,
        "lon": -114.48088108071393,
        "alt_km": 518.3470420124459,
        "timestamp": "2025-12-22T09:53:36.143375+00:00",
        "meta_object_name": "TRANSPORTER-15 E",
        "meta_object_id": "2025-276E",
        "meta_epoch": "2025-12-22T04:16:26.035968",
        "meta_mean_motion": 15.17085182,
        "meta_eccentricity": 0.0002239,
        "meta_inclination": 97.4305,
        "meta_ra_of_asc_node": 67.7263,
        "meta_arg_of_pericenter": 186.5116,
        "meta_mean_anomaly": 173.6089,
        "meta_ephemeris_type": 0,
        "meta_classification_type": "U",
        "meta_norad_cat_id": 66670,
        "meta_element_set_no": 999,
        "meta_rev_at_epoch": 355,
        "meta_bstar": -0.0034477,
        "meta_mean_motion_dot": -0.00067675,
        "meta_mean_motion_ddot": 0,
        "tle_line1": "1 66670U 25276E   25356.17807912 -.00067675  00000+0 -34477-2 0  9992",
        "tle_line2": "2 66670  97.4305  67.7263 0002239 186.5116 173.6089 15.17085182  3555"
      },
      "geometry": {
        "type": "Point",
        "coordinates": [
          -114.48088108071393,
          -18.044172415703816
        ]
      }
    },
    {
      "type": "Feature",
      "properties": {
        "norad_id": 66671,
        "name": "TRANSPORTER-15 F",
        "group": "last-30-days",
        "lat": -29.504041367841037,
        "lon": -116.24737920095242,
        "alt_km": 518.1061186700881,
        "timestamp": "2025-12-22T09:53:36.143385+00:00",
        "meta_object_name": "TRANSPORTER-15 F",
        "meta_object_id": "2025-276F",
        "meta_epoch": "2025-12-22T04:13:21.414720",
        "meta_mean_motion": 15.17093161,
        "meta_eccentricity": 0.0005092,
        "meta_inclination": 97.4423,
        "meta_ra_of_asc_node": 67.7626,
        "meta_arg_of_pericenter": 255.0825,
        "meta_mean_anomaly": 104.9845,
        "meta_ephemeris_type": 0,
        "meta_classification_type": "U",
        "meta_norad_cat_id": 66671,
        "meta_element_set_no": 999,
        "meta_rev_at_epoch": 355,
        "meta_bstar": 0.00073567,
        "meta_mean_motion_dot": 0.0001453,
        "meta_mean_motion_ddot": 0,
        "tle_line1": "1 66671U 25276F   25356.17594230  .00014530  00000+0  73567-3 0  9993",
        "tle_line2": "2 66671  97.4423  67.7626 0005092 255.0825 104.9845 15.17093161  3552"
      },
      "geometry": {
        "type": "Point",
        "coordinates": [
          -116.24737920095242,
          -29.504041367841037
        ]
      }
    },
    {
      "type": "Feature",
      "properties": {
        "norad_id": 66672,
        "name": "TRANSPORTER-15 G",
        "group": "last-30-days",
        "lat": -4.306922473814537,
        "lon": -112.58769066276673,
        "alt_km": 518.2741775527938,
        "timestamp": "2025-12-22T09:53:36.143395+00:00",
        "meta_object_name": "TRANSPORTER-15 G",
        "meta_object_id": "2025-276G",
        "meta_epoch": "2025-12-22T04:19:57.762624",
        "meta_mean_motion": 15.16625292,
        "meta_eccentricity": 0.0005386,
        "meta_inclination": 97.4398,
        "meta_ra_of_asc_node": 67.7489,
        "meta_arg_of_pericenter": 253.0779,
        "meta_mean_anomaly": 106.9864,
        "meta_ephemeris_type": 0,
        "meta_classification_type": "U",
        "meta_norad_cat_id": 66672,
        "meta_element_set_no": 999,
        "meta_rev_at_epoch": 355,
        "meta_bstar": 0.00048718,
        "meta_mean_motion_dot": 9.466e-05,
        "meta_mean_motion_ddot": 0,
        "tle_line1": "1 66672U 25276G   25356.18052966  .00009466  00000+0  48718-3 0  9992",
        "tle_line2": "2 66672  97.4398  67.7489 0005386 253.0779 106.9864 15.16625292  3551"
      },
      "geometry": {
        "type": "Point",
        "coordinates": [
          -112.58769066276673,
          -4.306922473814537
        ]
      }
    },
    {
      "type": "Feature",
      "properties": {
        "norad_id": 66673,
        "name": "TRANSPORTER-15 H",
        "group": "last-30-days",
        "lat": -24.136934784629606,
        "lon": -115.38055106682489,
        "alt_km": 518.5651777023113,
        "timestamp": "2025-12-22T09:53:36.143407+00:00",
        "meta_object_name": "TRANSPORTER-15 H",
        "meta_object_id": "2025-276H",
        "meta_epoch": "2025-12-22T04:14:47.061312",
        "meta_mean_motion": 15.17106146,
        "meta_eccentricity": 0.0005831,
        "meta_inclination": 97.4367,
        "meta_ra_of_asc_node": 67.744,
        "meta_arg_of_pericenter": 271.4486,
        "meta_mean_anomaly": 88.6079,
        "meta_ephemeris_type": 0,
        "meta_classification_type": "U",
        "meta_norad_cat_id": 66673,
        "meta_element_set_no": 999,
        "meta_rev_at_epoch": 355,
        "meta_bstar": 0.00093198,
        "meta_mean_motion_dot": 0.00018444,
        "meta_mean_motion_ddot": 0,
        "tle_line1": "1 66673U 25276H   25356.17693358  .00018444  00000+0  93198-3 0  9996",
        "tle_line2": "2 66673  97.4367  67.7440 0005831 271.4486  88.6079 15.17106146  3556"
      },
      "geometry": {
        "type": "Point",
        "coordinates": [
          -115.38055106682489,
          -24.136934784629606
        ]
      }
    },
    {
      "type": "Feature",
      "properties": {
        "norad_id": 66674,
        "name": "TRANSPORTER-15 J",
        "group": "last-30-days",
        "lat": -3.7386647028561915,
        "lon": -112.51938572524236,
        "alt_km": 530.7004474062242,
        "timestamp": "2025-12-22T09:53:36.143417+00:00",
        "meta_object_name": "TRANSPORTER-15 J",
        "meta_object_id": "2025-276J",
        "meta_epoch": "2025-12-21T10:53:16.478880",
        "meta_mean_motion": 15.15191397,
        "meta_eccentricity": 0.00065005,
        "meta_inclination": 97.4372,
        "meta_ra_of_asc_node": 67.0325,
        "meta_arg_of_pericenter": 333.1103,
        "meta_mean_anomaly": 26.9792,
        "meta_ephemeris_type": 0,
        "meta_classification_type": "U",
        "meta_norad_cat_id": 66674,
        "meta_element_set_no": 999,
        "meta_rev_at_epoch": 344,
        "meta_bstar": -0.028180021,
        "meta_mean_motion_dot": -0.00494676,
        "meta_mean_motion_ddot": 0,
        "tle_line1": "1 66674U 25276J   25355.45366295 -.00494676  00000+0 -28180-1 0  9998",
        "tle_line2": "2 66674  97.4372  67.0325 0006500 333.1103  26.9792 15.15191397  3449"
      },
      "geometry": {
        "type": "Point",
        "coordinates": [
          -112.51938572524236,
          -3.7386647028561915
        ]
      }
    },
    {
      "type": "Feature",
      "properties": {
        "norad_id": 66675,
        "name": "TRANSPORTER-15 K",
        "group": "last-30-days",
        "lat": -24.27775330345558,
        "lon": -115.39568822306298,
        "alt_km": 518.4887082182677,
        "timestamp": "2025-12-22T09:53:36.143427+00:00",
        "meta_object_name": "TRANSPORTER-15 K",
        "meta_object_id": "2025-276K",
        "meta_epoch": "2025-12-22T04:14:43.677888",
        "meta_mean_motion": 15.1699558,
        "meta_eccentricity": 0.0005091,
        "meta_inclination": 97.439,
        "meta_ra_of_asc_node": 67.752,
        "meta_arg_of_pericenter": 259.6753,
        "meta_mean_anomaly": 100.3906,
        "meta_ephemeris_type": 0,
        "meta_classification_type": "U",
        "meta_norad_cat_id": 66675,
        "meta_element_set_no": 999,
        "meta_rev_at_epoch": 355,
        "meta_bstar": 0.00070406,
        "meta_mean_motion_dot": 0.00013863,
        "meta_mean_motion_ddot": 0,
        "tle_line1": "1 66675U 25276K   25356.17689442  .00013863  00000+0  70406-3 0  9994",
        "tle_line2": "2 66675  97.4390  67.7520 0005091 259.6753 100.3906 15.16995580  3554"
      },
      "geometry": {
        "type": "Point",
        "coordinates": [
          -115.39568822306298,
          -24.27775330345558
        ]
      }
    }
  ]
}